[{"OBJECT_NAME":"TDRS 11","OBJECT_ID":"2013-004A","EPOCH":"2026-03-05T17:28:35.510592","MEAN_MOTION":1.00277035,"ECCENTRICITY":0.0003985,"INCLINATION":3.3693,"RA_OF_ASC_NODE":29.3775,"ARG_OF_PERICENTER":351.0214,"MEAN_ANOMALY":230.8817,"EPHEMERIS_TYPE":0,"CLASSIFICATION_TYPE":"U","NORAD_CAT_ID":39070,"ELEMENT_SET_NO":999,"REV_AT_EPOCH":4565,"BSTAR":0,"MEAN_MOTION_DOT":7.5e-7,"MEAN_MOTION_DDOT":0},{"OBJECT_NAME":"TDRS 12","OBJECT_ID":"2014-004A","EPOCH":"2026-03-05T15:32:11.700096","MEAN_MOTION":1.00269642,"ECCENTRICITY":0.0003897,"INCLINATION":3.8771,"RA_OF_ASC_NODE":17.2631,"ARG_OF_PERICENTER":267.9073,"MEAN_ANOMALY":70.3501,"EPHEMERIS_TYPE":0,"CLASSIFICATION_TYPE":"U","NORAD_CAT_ID":39504,"ELEMENT_SET_NO":999,"REV_AT_EPOCH":4323,"BSTAR":0,"MEAN_MOTION_DOT":-2.75e-6,"MEAN_MOTION_DDOT":0},{"OBJECT_NAME":"GPM-CORE","OBJECT_ID":"2014-009C","EPOCH":"2026-03-05T18:15:38.187360","MEAN_MOTION":15.44639643,"ECCENTRICITY":0.0012417,"INCLINATION":64.973,"RA_OF_ASC_NODE":294.6481,"ARG_OF_PERICENTER":264.948,"MEAN_ANOMALY":95.0243,"EPHEMERIS_TYPE":0,"CLASSIFICATION_TYPE":"U","NORAD_CAT_ID":39574,"ELEMENT_SET_NO":999,"REV_AT_EPOCH":68183,"BSTAR":0.00023521,"MEAN_MOTION_DOT":0.00010807,"MEAN_MOTION_DDOT":0},{"OBJECT_NAME":"MMS 1","OBJECT_ID":"2015-011A","EPOCH":"2026-03-05T18:00:00.998784","MEAN_MOTION":0.28334504,"ECCENTRICITY":0.841549,"INCLINATION":70.7606,"RA_OF_ASC_NODE":350.2105,"ARG_OF_PERICENTER":165.2379,"MEAN_ANOMALY":187.9716,"EPHEMERIS_TYPE":0,"CLASSIFICATION_TYPE":"U","NORAD_CAT_ID":40482,"ELEMENT_SET_NO":999,"REV_AT_EPOCH":133,"BSTAR":0,"MEAN_MOTION_DOT":-1.901e-5,"MEAN_MOTION_DDOT":0},{"OBJECT_NAME":"MMS 2","OBJECT_ID":"2015-011B","EPOCH":"2026-03-05T18:00:00.998784","MEAN_MOTION":0.28334931,"ECCENTRICITY":0.8416419,"INCLINATION":70.7631,"RA_OF_ASC_NODE":350.2122,"ARG_OF_PERICENTER":165.2445,"MEAN_ANOMALY":187.9552,"EPHEMERIS_TYPE":0,"CLASSIFICATION_TYPE":"U","NORAD_CAT_ID":40483,"ELEMENT_SET_NO":999,"REV_AT_EPOCH":133,"BSTAR":0,"MEAN_MOTION_DOT":-1.901e-5,"MEAN_MOTION_DDOT":0},{"OBJECT_NAME":"MMS 3","OBJECT_ID":"2015-011C","EPOCH":"2026-03-05T18:00:00.998784","MEAN_MOTION":0.283349,"ECCENTRICITY":0.8415704,"INCLINATION":70.7654,"RA_OF_ASC_NODE":350.2169,"ARG_OF_PERICENTER":165.2387,"MEAN_ANOMALY":187.9638,"EPHEMERIS_TYPE":0,"CLASSIFICATION_TYPE":"U","NORAD_CAT_ID":40484,"ELEMENT_SET_NO":999,"REV_AT_EPOCH":133,"BSTAR":0,"MEAN_MOTION_DOT":-1.901e-5,"MEAN_MOTION_DDOT":0},{"OBJECT_NAME":"MMS 4","OBJECT_ID":"2015-011D","EPOCH":"2026-03-05T18:00:00.998784","MEAN_MOTION":0.28334897,"ECCENTRICITY":0.8415205,"INCLINATION":70.7635,"RA_OF_ASC_NODE":350.212,"ARG_OF_PERICENTER":165.246,"MEAN_ANOMALY":187.9494,"EPHEMERIS_TYPE":0,"CLASSIFICATION_TYPE":"U","NORAD_CAT_ID":40485,"ELEMENT_SET_NO":999,"REV_AT_EPOCH":133,"BSTAR":0,"MEAN_MOTION_DOT":-1.901e-5,"MEAN_MOTION_DDOT":0},{"OBJECT_NAME":"TDRS 13","OBJECT_ID":"2017-047A","EPOCH":"2026-03-05T15:33:57.352608","MEAN_MOTION":1.00272295,"ECCENTRICITY":0.0010367,"INCLINATION":3.4298,"RA_OF_ASC_NODE":0.0958,"ARG_OF_PERICENTER":98.9237,"MEAN_ANOMALY":286.3732,"EPHEMERIS_TYPE":0,"CLASSIFICATION_TYPE":"U","NORAD_CAT_ID":42915,"ELEMENT_SET_NO":999,"REV_AT_EPOCH":3131,"BSTAR":0,"MEAN_MOTION_DOT":-1.05e-6,"MEAN_MOTION_DDOT":0},{"OBJECT_NAME":"NOAA 20 (JPSS-1)","OBJECT_ID":"2017-073A","EPOCH":"2026-03-05T19:27:27.761472","MEAN_MOTION":14.19534961,"ECCENTRICITY":0.0001033,"INCLINATION":98.7689,"RA_OF_ASC_NODE":5.2366,"ARG_OF_PERICENTER":142.6447,"MEAN_ANOMALY":217.4801,"EPHEMERIS_TYPE":0,"CLASSIFICATION_TYPE":"U","NORAD_CAT_ID":43013,"ELEMENT_SET_NO":999,"REV_AT_EPOCH":42980,"BSTAR":8.3084e-5,"MEAN_MOTION_DOT":1.31e-6,"MEAN_MOTION_DDOT":0}]
